{"type": "FeatureCollection", "features": [{"type": "Feature", "properties": {"norad_id": 32275, "name": "COSMOS 2433 (720)", "group": "glo-ops", "lat": 21.214106797926828, "lon": 131.8428122656685, "alt_km": 19129.483423759957, "timestamp": "2025-12-19T20:43:00.346397+00:00", "meta": {"OBJECT_NAME": "COSMOS 2433 (720)", "OBJECT_ID": "2007-052A", "EPOCH": "2025-12-19T04:33:13.000320", "MEAN_MOTION": 2.13104199, "ECCENTRICITY": 0.0005237, "INCLINATION": 65.6796, "RA_OF_ASC_NODE": 321.9886, "ARG_OF_PERICENTER": 255.1824, "MEAN_ANOMALY": 104.7517, "EPHEMERIS_TYPE": 0, "CLASSIFICATION_TYPE": "U", "NORAD_CAT_ID": 32275, "ELEMENT_SET_NO": 999, "REV_AT_EPOCH": 14122, "BSTAR": 0, "MEAN_MOTION_DOT": -5.9e-07, "MEAN_MOTION_DDOT": 0}, "tle": {"line1": "1 32275U 07052A   25353.18973380 -.00000059  00000+0  00000+0 0  9993", "line2": "2 32275  65.6796 321.9886 0005237 255.1824 104.7517  2.13104199141226"}}, "geometry": {"type": "Point", "coordinates": [131.8428122656685, 21.214106797926828]}}, {"type": "Feature", "properties": {"norad_id": 32276, "name": "COSMOS 2432 (719)", "group": "glo-ops", "lat": 63.39468489352149, "lon": 77.66013178626046, "alt_km": 19147.435490283908, "timestamp": "2025-12-19T20:43:00.346420+00:00", "meta": {"OBJECT_NAME": "COSMOS 2432 (719)", "OBJECT_ID": "2007-052B", "EPOCH": "2025-12-19T05:46:36.242400", "MEAN_MOTION": 2.13103325, "ECCENTRICITY": 0.0011333, "INCLINATION": 65.6954, "RA_OF_ASC_NODE": 322.1112, "ARG_OF_PERICENTER": 313.5776, "MEAN_ANOMALY": 29.8989, "EPHEMERIS_TYPE": 0, "CLASSIFICATION_TYPE": "U", "NORAD_CAT_ID": 32276, "ELEMENT_SET_NO": 999, "REV_AT_EPOCH": 14124, "BSTAR": 0, "MEAN_MOTION_DOT": -5.9e-07, "MEAN_MOTION_DDOT": 0}, "tle": {"line1": "1 32276U 07052B   25353.24069725 -.00000059  00000+0  00000+0 0  9990", "line2": "2 32276  65.6954 322.1112 0011333 313.5776  29.8989  2.13103325141249"}}, "geometry": {"type": "Point", "coordinates": [77.66013178626046, 63.39468489352149]}}, {"type": "Feature", "properties": {"norad_id": 32393, "name": "COSMOS 2434 (721)", "group": "glo-ops", "lat": 41.31231085735114, "lon": -136.99703330441298, "alt_km": 19114.785897066096, "timestamp": "2025-12-19T20:43:00.346435+00:00", "meta": {"OBJECT_NAME": "COSMOS 2434 (721)", "OBJECT_ID": "2007-065A", "EPOCH": "2025-12-19T02:55:57.654912", "MEAN_MOTION": 2.13101443, "ECCENTRICITY": 0.00044478, "INCLINATION": 64.3149, "RA_OF_ASC_NODE": 197.9879, "ARG_OF_PERICENTER": 71.0524, "MEAN_ANOMALY": 127.6771, "EPHEMERIS_TYPE": 0, "CLASSIFICATION_TYPE": "U", "NORAD_CAT_ID": 32393, "ELEMENT_SET_NO": 999, "REV_AT_EPOCH": 13993, "BSTAR": 0, "MEAN_MOTION_DOT": 1.06e-06, "MEAN_MOTION_DDOT": 0}, "tle": {"line1": "1 32393U 07065A   25353.12219508  .00000106  00000+0  00000+0 0  9999", "line2": "2 32393  64.3149 197.9879 0004447  71.0524 127.6771  2.13101443139932"}}, "geometry": {"type": "Point", "coordinates": [-136.99703330441298, 41.31231085735114]}}, {"type": "Feature", "properties": {"norad_id": 32395, "name": "COSMOS 2436 (723)", "group": "glo-ops", "lat": -0.23133430734740307, "lon": 18.149096261107292, "alt_km": 19175.39860972974, "timestamp": "2025-12-19T20:43:00.346448+00:00", "meta": {"OBJECT_NAME": "COSMOS 2436 (723)", "OBJECT_ID": "2007-065C", "EPOCH": "2025-12-16T08:11:52.503360", "MEAN_MOTION": 2.13100112, "ECCENTRICITY": 0.00177699, "INCLINATION": 64.3235, "RA_OF_ASC_NODE": 198.1521, "ARG_OF_PERICENTER": 9.2217, "MEAN_ANOMALY": 349.3751, "EPHEMERIS_TYPE": 0, "CLASSIFICATION_TYPE": "U", "NORAD_CAT_ID": 32395, "ELEMENT_SET_NO": 999, "REV_AT_EPOCH": 13982, "BSTAR": 0, "MEAN_MOTION_DOT": 1.1e-06, "MEAN_MOTION_DDOT": 0}, "tle": {"line1": "1 32395U 07065C   25350.34157990  .00000110  00000+0  00000+0 0  9993", "line2": "2 32395  64.3235 198.1521 0017769   9.2217 349.3751  2.13100112139821"}}, "geometry": {"type": "Point", "coordinates": [18.149096261107292, -0.23133430734740307]}}, {"type": "Feature", "properties": {"norad_id": 36111, "name": "COSMOS 2456 (730)", "group": "glo-ops", "lat": -21.892841043848684, "lon": -92.05761273768162, "alt_km": 19133.447897503363, "timestamp": "2025-12-19T20:43:00.346461+00:00", "meta": {"OBJECT_NAME": "COSMOS 2456 (730)", "OBJECT_ID": "2009-070A", "EPOCH": "2025-12-18T06:55:18.738048", "MEAN_MOTION": 2.13103695, "ECCENTRICITY": 0.00031882, "INCLINATION": 64.9035, "RA_OF_ASC_NODE": 77.1481, "ARG_OF_PERICENTER": 297.6027, "MEAN_ANOMALY": 138.5871, "EPHEMERIS_TYPE": 0, "CLASSIFICATION_TYPE": "U", "NORAD_CAT_ID": 36111, "ELEMENT_SET_NO": 999, "REV_AT_EPOCH": 12457, "BSTAR": 0, "MEAN_MOTION_DOT": -4.1e-07, "MEAN_MOTION_DDOT": 0}, "tle": {"line1": "1 36111U 09070A   25352.28841132 -.00000041  00000+0  00000+0 0  9998", "line2": "2 36111  64.9035  77.1481 0003188 297.6027 138.5871  2.13103695124574"}}, "geometry": {"type": "Point", "coordinates": [-92.05761273768162, -21.892841043848684]}}, {"type": "Feature", "properties": {"norad_id": 36112, "name": "COSMOS 2457 (733)", "group": "glo-ops", "lat": -23.950922271865593, "lon": 64.9523877453879, "alt_km": 19145.096164059683, "timestamp": "2025-12-19T20:43:00.346473+00:00", "meta": {"OBJECT_NAME": "COSMOS 2457 (733)", "OBJECT_ID": "2009-070B", "EPOCH": "2025-12-18T11:41:17.961216", "MEAN_MOTION": 2.13101033, "ECCENTRICITY": 0.00046158, "INCLINATION": 64.8891, "RA_OF_ASC_NODE": 76.9887, "ARG_OF_PERICENTER": 160.5919, "MEAN_ANOMALY": 197.0462, "EPHEMERIS_TYPE": 0, "CLASSIFICATION_TYPE": "U", "NORAD_CAT_ID": 36112, "ELEMENT_SET_NO": 999, "REV_AT_EPOCH": 12457, "BSTAR": 0, "MEAN_MOTION_DOT": -3.9e-07, "MEAN_MOTION_DDOT": 0}, "tle": {"line1": "1 36112U 09070B   25352.48701344 -.00000039  00000+0  00000+0 0  9998", "line2": "2 36112  64.8891  76.9887 0004615 160.5919 197.0462  2.13101033124575"}}, "geometry": {"type": "Point", "coordinates": [64.9523877453879, -23.950922271865593]}}, {"type": "Feature", "properties": {"norad_id": 36402, "name": "COSMOS 2460 (732)", "group": "glo-ops", "lat": -24.384887174794027, "lon": -51.39534455861978, "alt_km": 19129.246288089613, "timestamp": "2025-12-19T20:43:00.346485+00:00", "meta": {"OBJECT_NAME": "COSMOS 2460 (732)", "OBJECT_ID": "2010-007C", "EPOCH": "2025-12-19T04:38:53.786112", "MEAN_MOTION": 2.13106306, "ECCENTRICITY": 0.0002553, "INCLINATION": 65.526, "RA_OF_ASC_NODE": 320.5549, "ARG_OF_PERICENTER": 278.744, "MEAN_ANOMALY": 260.6027, "EPHEMERIS_TYPE": 0, "CLASSIFICATION_TYPE": "U", "NORAD_CAT_ID": 36402, "ELEMENT_SET_NO": 999, "REV_AT_EPOCH": 12289, "BSTAR": 0, "MEAN_MOTION_DOT": -5.9e-07, "MEAN_MOTION_DDOT": 0}, "tle": {"line1": "1 36402U 10007C   25353.19367808 -.00000059  00000+0  00000+0 0  9996", "line2": "2 36402  65.5260 320.5549 0002553 278.7440 260.6027  2.13106306122893"}}, "geometry": {"type": "Point", "coordinates": [-51.39534455861978, -24.384887174794027]}}, {"type": "Feature", "properties": {"norad_id": 37867, "name": "COSMOS 2476 (744)", "group": "glo-ops", "lat": 57.035463157436766, "lon": -146.51766565897535, "alt_km": 19156.34208546612, "timestamp": "2025-12-19T20:43:00.346497+00:00", "meta": {"OBJECT_NAME": "COSMOS 2476 (744)", "OBJECT_ID": "2011-064A", "EPOCH": "2025-12-19T06:05:26.552256", "MEAN_MOTION": 2.13103916, "ECCENTRICITY": 0.00243207, "INCLINATION": 65.1662, "RA_OF_ASC_NODE": 78.9509, "ARG_OF_PERICENTER": 234.6548, "MEAN_ANOMALY": 130.4776, "EPHEMERIS_TYPE": 0, "CLASSIFICATION_TYPE": "U", "NORAD_CAT_ID": 37867, "ELEMENT_SET_NO": 999, "REV_AT_EPOCH": 10993, "BSTAR": 0, "MEAN_MOTION_DOT": -3e-07, "MEAN_MOTION_DDOT": 0}, "tle": {"line1": "1 37867U 11064A   25353.25377954 -.00000030  00000+0  00000+0 0  9995", "line2": "2 37867  65.1662  78.9509 0024320 234.6548 130.4776  2.13103916109936"}}, "geometry": {"type": "Point", "coordinates": [-146.51766565897535, 57.035463157436766]}}, {"type": "Feature", "properties": {"norad_id": 37868, "name": "COSMOS 2477 (745)", "group": "glo-ops", "lat": -56.182015608881215, "lon": 35.404009866427465, "alt_km": 19108.003229996662, "timestamp": "2025-12-19T20:43:00.346509+00:00", "meta": {"OBJECT_NAME": "COSMOS 2477 (745)", "OBJECT_ID": "2011-064B", "EPOCH": "2025-12-18T12:02:16.818720", "MEAN_MOTION": 2.13102921, "ECCENTRICITY": 0.00212144, "INCLINATION": 65.1723, "RA_OF_ASC_NODE": 79.0538, "ARG_OF_PERICENTER": 234.8854, "MEAN_ANOMALY": 94.0943, "EPHEMERIS_TYPE": 0, "CLASSIFICATION_TYPE": "U", "NORAD_CAT_ID": 37868, "ELEMENT_SET_NO": 999, "REV_AT_EPOCH": 10990, "BSTAR": 0, "MEAN_MOTION_DOT": -3.8e-07, "MEAN_MOTION_DDOT": 0}, "tle": {"line1": "1 37868U 11064B   25352.50158355 -.00000038  00000+0  00000+0 0  9993", "line2": "2 37868  65.1723  79.0538 0021214 234.8854  94.0943  2.13102921109903"}}, "geometry": {"type": "Point", "coordinates": [35.404009866427465, -56.182015608881215]}}, {"type": "Feature", "properties": {"norad_id": 37869, "name": "COSMOS 2475 (743)", "group": "glo-ops", "lat": -58.2426794954521, "lon": -52.68873742233754, "alt_km": 19068.80093292937, "timestamp": "2025-12-19T20:43:00.346521+00:00", "meta": {"OBJECT_NAME": "COSMOS 2475 (743)", "OBJECT_ID": "2011-064C", "EPOCH": "2025-12-18T05:19:14.657088", "MEAN_MOTION": 2.13101609, "ECCENTRICITY": 0.0026433, "INCLINATION": 65.1789, "RA_OF_ASC_NODE": 79.0834, "ARG_OF_PERICENTER": 248.8457, "MEAN_ANOMALY": 181.3342, "EPHEMERIS_TYPE": 0, "CLASSIFICATION_TYPE": "U", "NORAD_CAT_ID": 37869, "ELEMENT_SET_NO": 999, "REV_AT_EPOCH": 10991, "BSTAR": 0, "MEAN_MOTION_DOT": -4.1e-07, "MEAN_MOTION_DDOT": 0}, "tle": {"line1": "1 37869U 11064C   25352.22169742 -.00000041  00000+0  00000+0 0  9999", "line2": "2 37869  65.1789  79.0834 0026433 248.8457 181.3342  2.13101609109913"}}, "geometry": {"type": "Point", "coordinates": [-52.68873742233754, -58.2426794954521]}}]}